ELECTRON KICK STAGE R/B 
1 67616U 26019C   26031.75998387  .00037009  25655-5  21952-3 0  9991
2 67616  97.4031 156.7817 0207820 255.9499 101.8576 15.53913180   261
ALSAT-3B                
1 67646U 26021A   26032.32801756  .00006165  00000+0  26191-3 0  9994
2 67646  97.4744 106.8199 0011318 261.7659  98.2294 15.23369700   189
CZ-2C R/B               
1 67647U 26021B   26032.32885214  .00012818  00000+0  39174-3 0  9993
2 67647  97.6587 107.0648 0154397 137.4685 223.8634 15.23031204   169
