CCSDS_OMM_VERS = 2.0
CREATION_DATE  = 
ORIGINATOR     = 

OBJECT_NAME    = ELECTRON KICK STAGE R/B
OBJECT_ID      = 2026-019C
CENTER_NAME    = EARTH
REF_FRAME      = TEME
TIME_SYSTEM    = UTC
MEAN_ELEMENT_THEORY = SGP/SGP4

EPOCH          = 2026-01-31T18:14:22.606368
MEAN_MOTION    = 15.53913180
ECCENTRICITY   = .02078201
INCLINATION    = 97.4031
RA_OF_ASC_NODE = 156.7817
ARG_OF_PERICENTER = 255.9499
MEAN_ANOMALY   = 101.8576

EPHEMERIS_TYPE = 0
CLASSIFICATION_TYPE = U
NORAD_CAT_ID   = 67616
ELEMENT_SET_NO = 999
REV_AT_EPOCH   = 26
BSTAR          = .21952164E-3
MEAN_MOTION_DOT = .37009E-3
MEAN_MOTION_DDOT = .2565545E-5

CCSDS_OMM_VERS = 2.0
CREATION_DATE  = 
ORIGINATOR     = 

OBJECT_NAME    = ALSAT-3B
OBJECT_ID      = 2026-021A
CENTER_NAME    = EARTH
REF_FRAME      = TEME
TIME_SYSTEM    = UTC
MEAN_ELEMENT_THEORY = SGP/SGP4

EPOCH          = 2026-02-01T07:52:20.717184
MEAN_MOTION    = 15.23369700
ECCENTRICITY   = .00113184
INCLINATION    = 97.4744
RA_OF_ASC_NODE = 106.8199
ARG_OF_PERICENTER = 261.7659
MEAN_ANOMALY   = 98.2294

EPHEMERIS_TYPE = 0
CLASSIFICATION_TYPE = U
NORAD_CAT_ID   = 67646
ELEMENT_SET_NO = 999
REV_AT_EPOCH   = 18
BSTAR          = .2619109E-3
MEAN_MOTION_DOT = .6165E-4
MEAN_MOTION_DDOT = 0

CCSDS_OMM_VERS = 2.0
CREATION_DATE  = 
ORIGINATOR     = 

OBJECT_NAME    = CZ-2C R/B
OBJECT_ID      = 2026-021B
CENTER_NAME    = EARTH
REF_FRAME      = TEME
TIME_SYSTEM    = UTC
MEAN_ELEMENT_THEORY = SGP/SGP4

EPOCH          = 2026-02-01T07:53:32.824896
MEAN_MOTION    = 15.23031204
ECCENTRICITY   = .01543979
INCLINATION    = 97.6587
RA_OF_ASC_NODE = 107.0648
ARG_OF_PERICENTER = 137.4685
MEAN_ANOMALY   = 223.8634

EPHEMERIS_TYPE = 0
CLASSIFICATION_TYPE = U
NORAD_CAT_ID   = 67647
ELEMENT_SET_NO = 999
REV_AT_EPOCH   = 16
BSTAR          = .39174117E-3
MEAN_MOTION_DOT = .12818E-3
MEAN_MOTION_DDOT = 0

